STARLINK-1953_new
1 17554C 21009G   21326.13870647  .00008869  00000-0  59406-3 0  3269
2 17554  53.0542 233.1144 0005109  87.9964   4.4802 15.06389932    17
STARLINK-1953_old
1 27554C 21009G   21325.15450152  .00008217  00000-0  55052-3 0  3254
2 27554  53.0550 237.5321 0005072  85.5398  66.6329 15.06380156    18
